EUTELSAT 16A            
1 37836U 11057A   25203.55702184  .00000097  00000+0  00000+0 0  9999
2 37836   0.0649 348.0865 0005339 133.9260  35.0542  1.00273496  4023
EUTELSAT 21B            
1 38992U 12062B   25203.55840852  .00000123  00000+0  00000+0 0  9995
2 38992   0.0677 349.3532 0003006 133.2249  40.5978  1.00274813 46521
EUTELSAT 70B            
1 39020U 12069A   25203.56804758 -.00000051  00000+0  00000+0 0  9992
2 39020   0.0631 349.3707 0003535 134.6177  91.5561  1.00273621 46205
EUTELSAT 117 WEST A     
1 39122U 13012A   25203.53093505 -.00000019  00000+0  00000+0 0  9995
2 39122   0.0109  35.0498 0002781  97.2011 242.5897  1.00272093 45129
EUTELSAT 7B             
1 39163U 13022A   25203.55537517  .00000041  00000+0  00000+0 0  9993
2 39163   0.0681 348.1475 0002945  58.1478 101.1598  1.00270871 44654
EXPRESS-AT1             
1 39612U 14010A   25203.61086434  .00000072  00000+0  00000+0 0  9998
2 39612   0.0120 343.8206 0000251  17.5972 215.0805  1.00270394 41519
EXPRESS-AT2             
1 39613U 14010B   25203.94905836 -.00000290  00000+0  00000+0 0  9994
2 39613   0.0123 351.9827 0000198 352.3486  78.0955  1.00271592 41583
EUTELSAT 3B             
1 39773U 14030A   25203.55459516  .00000014  00000+0  00000+0 0  9992
2 39773   0.0626 349.8417 0003960 146.5958   6.8538  1.00274128 40769
